STARLINK-31473          
1 59339U 24057V   26068.31701876 -.00001745  00000+0 -53933-4 0  9997
2 59339  43.0022 189.0471 0001678 284.5895  75.4771 15.27568004109789
TEVEL2-8                
1 63239U 25052AF  26068.66815442  .00019130  00000+0  69304-3 0  9993
2 63239  97.4055 324.2923 0008031 124.9191 235.2804 15.28392908 54807
